FENGYUN 1C DEB          
1 31833U 99025CHX 17346.36926155  .00000466  00000-0  59759-3 0  9995
2 31833  98.2279  30.3559 0331578 323.2384  34.6418 13.46347743517623
